[{"OBJECT_NAME":"TOMORROW-S2","OBJECT_ID":"2024-149T","EPOCH":"2026-03-09T18:02:42.746496","MEAN_MOTION":15.30674935,"ECCENTRICITY":0.0001648,"INCLINATION":97.3857,"RA_OF_ASC_NODE":150.0385,"ARG_OF_PERICENTER":234.3331,"MEAN_ANOMALY":125.7757,"EPHEMERIS_TYPE":0,"CLASSIFICATION_TYPE":"U","NORAD_CAT_ID":60485,"ELEMENT_SET_NO":999,"REV_AT_EPOCH":8686,"BSTAR":0.00027683033,"MEAN_MOTION_DOT":8.133e-5,"MEAN_MOTION_DDOT":0},{"OBJECT_NAME":"STARLINK-33578","OBJECT_ID":"2025-063F","EPOCH":"2026-03-09T22:35:34.359360","MEAN_MOTION":15.3018665,"ECCENTRICITY":0.00013078,"INCLINATION":53.1613,"RA_OF_ASC_NODE":48.7626,"ARG_OF_PERICENTER":100.5813,"MEAN_ANOMALY":259.5335,"EPHEMERIS_TYPE":0,"CLASSIFICATION_TYPE":"U","NORAD_CAT_ID":63368,"ELEMENT_SET_NO":999,"REV_AT_EPOCH":5477,"BSTAR":0.0009055418,"MEAN_MOTION_DOT":0.00026545,"MEAN_MOTION_DDOT":0}]
